CZ-4B R/B               
1 28059U 03049C   25112.46753772  .00000803  00000+0  19661-3 0  9998
2 28059  98.6562  90.5232 0049378 131.1154 229.4321 14.54622657139895
CZ-2C R/B               
1 28222U 04012C   25112.09240942  .00031867  00000+0  73759-3 0  9992
2 28222  97.7732 147.7530 0025295  42.2229 318.0959 15.42064910154438
SL-16 R/B               
1 28353U 04021B   25112.48595131 -.00000218  00000+0 -88694-4 0  9996
2 28353  71.0009 186.5321 0005145 195.1053 164.9917 14.14538886 77419
CZ-4B R/B               
1 28415U 04035C   25112.07234774  .00011862  00000+0  49238-3 0  9993
2 28415  97.3854 145.8585 0037127  27.5223 332.7969 15.23351610130869
CZ-2C R/B               
1 28480U 04046B   25112.39418694  .00000595  00000+0  23639-3 0  9995
2 28480  98.1924  42.4882 0140413  25.4773 335.3244 14.26799025 62687
ARIANE 5 R/B            
1 28499U 04049H   25112.38364049  .00001595  00000+0  18552-3 0  9990
2 28499  98.2266 264.7685 0084564 312.6945  46.7167 14.84373135 98111
CZ-2D R/B               
1 28738U 05024B   25112.43845890  .00028515  00000+0  67884-3 0  9997
2 28738  97.3700 115.9041 0009108 112.4688 247.7524 15.41535990 90041
ALOS (DAICHI)           
1 28931U 06002A   25112.44342845  .00003531  00000+0  61734-3 0  9991
2 28931  98.0797  66.2426 0001066 111.8296 248.3023 14.68505678 26316
H-2A R/B                
1 28932U 06002B   25112.31547394  .00013294  00000+0  78959-3 0  9998
2 28932  98.2041 229.3350 0058800 249.2628 110.2292 15.09976925 45849
RESURS-DK 1             
1 29228U 06021A   25112.59953642  .00004331  00000+0  26718-3 0  9993
2 29228  69.9364 346.1533 0007934 256.7161 103.3119 15.10669455 39000
GENESIS 1               
1 29252U 06029A   25112.50963522  .00142713  00000+0  77411-3 0  9990
2 29252  64.5014 178.5273 0031393 297.1241  62.6711 15.78648602 38696
CZ-4B R/B               
1 29507U 06046C   25112.53868986  .00007266  00000+0  40649-3 0  9999
2 29507  97.6008 153.3053 0034339 297.8364  61.9389 15.13260730 11462
CZ-2C R/B               
1 31114U 07010B   25112.31492609  .00000326  00000+0  16864-3 0  9991
2 31114  98.3706 237.1145 0059836 147.9240 212.5601 14.20106895934106
COSMO-SKYMED 1          
1 31598U 07023A   25112.59796755  .00001200  00000+0  15185-3 0  9997
2 31598  97.8877 297.3221 0001465  79.7417 280.3962 14.83637826966954
GENESIS 2               
1 31789U 07028A   25112.61512970  .00094581  00000+0  78678-3 0  9992
2 31789  64.4772 228.5937 0019863 313.9137  46.0370 15.69366365985361
COSMOS 2428             
1 31792U 07029A   25112.46691642 -.00000110  00000+0 -33168-4 0  9997
2 31792  70.9349 157.6530 0005720 318.7664  41.3024 14.12842661918728
SL-16 R/B               
1 31793U 07029B   25112.59049502  .00000378  00000+0  22088-3 0  9996
2 31793  70.9734 127.3252 0001934 264.5316 233.3712 14.14776610919952
KORONAS-FOTON           
1 33504U 09003A   25112.40810498  .00018095  00000+0  52095-3 0  9998
2 33504  82.4322 247.6679 0011865 222.9441 137.0877 15.35565475896321
CZ-2C R/B               
1 37731U 11030B   25112.47182706  .00002997  00000+0  39350-3 0  9991
2 37731  97.8100  72.4390 0052637 316.8928 155.7913 14.80043120742561
H-2A R/B                
1 38341U 12025E   25112.40661152  .00005119  00000+0  49301-3 0  9990
2 38341  98.4337  50.4198 0045374 282.9313  76.6839 14.92682379700257
SHIJIAN-16 (SJ-16)      
1 39358U 13057A   25112.57685528  .00002211  00000+0  22501-3 0  9999
2 39358  74.9719  72.3914 0017084 176.8500 183.2798 14.91150250623625
SL-4 R/B                
1 39679U 14021B   25112.20163865  .00020924  00000+0  58273-3 0  9998
2 39679  51.6096  94.1607 0117153  19.5499 340.9918 15.30096947606915
ALOS-2                  
1 39766U 14029A   25112.46279842  .00003777  00000+0  51257-3 0  9996
2 39766  97.9196 210.6643 0001680 107.0758 253.0638 14.79454399589407
YAOGAN-29               
1 41038U 15069A   25112.57943372  .00000929  00000+0  12224-3 0  9991
2 41038  98.0386 134.7283 0001016  22.0066 338.1190 14.82571527508295
ASTRO-H (HITOMI)        
1 41337U 16012A   25112.57548057  .00004776  00000+0  29920-3 0  9998
2 41337  31.0000 264.8225 0010071 349.3860  10.6564 15.07712968503696
HXMT (HUIYAN)           
1 42758U 17034A   25112.60770981  .00010552  00000+0  58687-3 0  9999
2 42758  43.0159 355.5419 0035552   7.4406 352.6961 15.13212078433836
CZ-2C R/B               
1 43521U 18054D   25112.53354728  .00044574  00000+0  77855-3 0  9999
2 43521  35.1395 291.4835 0037038  87.7928 272.7037 15.48821441378506
SAOCOM 1A               
1 43641U 18076A   25112.54531376  .00000943  00000+0  12507-3 0  9998
2 43641  97.8900 300.3272 0001332  91.6625 268.4741 14.82153698353794
H-2A R/B                
1 43682U 18084L   25112.37058610  .00024391  00000+0  85448-3 0  9995
2 43682  98.8683 259.9237 0033174  49.1253 311.2848 15.28960191356504
SAOCOM 1B               
1 46265U 20059A   25112.57657784  .00000966  00000+0  12790-3 0  9991
2 46265  97.8895 299.4623 0001442  89.2590 270.8788 14.82153887251184
CSS (TIANHE)            
1 48274U 21035A   25111.74750141  .00049076  00000+0  54428-3 0  9996
2 48274  41.4658   4.0178 0004649 216.9437 143.1082 15.62101322227339
COSMOS 2550             
1 48865U 21056A   25112.56566741  .00011341  00000+0  34997-3 0  9990
2 48865  67.1442 292.4001 0008413 270.5382  89.4808 15.33835159214218
CZ-2C R/B               
1 52794U 22058K   25112.53773356  .00022103  00000+0  55825-3 0  9999
2 52794  50.1934 146.9314 0061141 307.9618  51.5832 15.37777431160484
GSLV R/B                
1 54149U 22138AN  25112.48356670  .00004651  00000+0  42727-3 0  9999
2 54149  87.3738 273.9270 0020627 233.2505 126.6832 14.94453459135924
XRISM                   
1 57800U 23137A   25112.44130653  .00008008  00000+0  50791-3 0  9993
2 57800  31.0012 194.6128 0008200  54.8875 305.2530 15.07554428 89216
ACS3                    
1 59588U 24077B   25112.41070173  .00011602  00000+0  11625-1 0  9994
2 59588  97.4829 118.5145 0052823  81.7149 278.9992 13.77126638 49813
